{"type": "FeatureCollection", "features": [ {"type": "Feature", "properties": {"norad_id": 66603, "name": "STARLINK-36048", "group": "last-30-days", "lat": -13.374656460609653, "lon": -125.32055465748637, "alt_km": 337.8359213367921, "timestamp": "2025-12-03T04:52:28.421801+00:00", "meta": {"OBJECT_NAME": "STARLINK-36048", "OBJECT_ID": "2025-270R", "EPOCH": "2025-12-02T20:00:03.000384", "MEAN_MOTION": 15.79186109, "ECCENTRICITY": 0.0001631, "INCLINATION": 42.9989, "RA_OF_ASC_NODE": 251.7182, "ARG_OF_PERICENTER": 266.0848, "MEAN_ANOMALY": 130.5322, "EPHEMERIS_TYPE": 0, "CLASSIFICATION_TYPE": "U", "NORAD_CAT_ID": 66603, "ELEMENT_SET_NO": 999, "REV_AT_EPOCH": 271, "BSTAR": -0.010787, "MEAN_MOTION_DOT": -0.01757484, "MEAN_MOTION_DDOT": 0}, "tle": {"line1": "1 66603U 25270R   25336.83336806 -.01757484  00000+0 -10787-1 0  9994", "line2": "2 66603  42.9989 251.7182 0001631 266.0848 130.5322 15.79186109  2718"}}, "geometry": {"type": "Point", "coordinates": [-125.32055465748637, -13.374656460609653]}}, {"type": "Feature", "properties": {"norad_id": 66604, "name": "STARLINK-35977", "group": "last-30-days", "lat": -12.118070251722168, "lon": -123.86378484241192, "alt_km": 337.81835569614304, "timestamp": "2025-12-03T04:52:28.421811+00:00", "meta": {"OBJECT_NAME": "STARLINK-35977", "OBJECT_ID": "2025-270S", "EPOCH": "2025-12-02T20:00:03.000384", "MEAN_MOTION": 15.79201569, "ECCENTRICITY": 0.0001683, "INCLINATION": 42.9989, "RA_OF_ASC_NODE": 251.7136, "ARG_OF_PERICENTER": 261.9595, "MEAN_ANOMALY": 136.5404, "EPHEMERIS_TYPE": 0, "CLASSIFICATION_TYPE": "U", "NORAD_CAT_ID": 66604, "ELEMENT_SET_NO": 999, "REV_AT_EPOCH": 280, "BSTAR": -0.010823, "MEAN_MOTION_DOT": -0.01763871, "MEAN_MOTION_DDOT": 0}, "tle": {"line1": "1 66604U 25270S   25336.83336806 -.01763871  00000+0 -10823-1 0  9993", "line2": "2 66604  42.9989 251.7136 0001683 261.9595 136.5404 15.79201569  2803"}}, "geometry": {"type": "Point", "coordinates": [-123.86378484241192, -12.118070251722168]}}, {"type": "Feature", "properties": {"norad_id": 66605, "name": "STARLINK-36052", "group": "last-30-days", "lat": -10.844341606868946, "lon": -122.41000327450593, "alt_km": 337.5326359369592, "timestamp": "2025-12-03T04:52:28.421821+00:00", "meta": {"OBJECT_NAME": "STARLINK-36052", "OBJECT_ID": "2025-270T", "EPOCH": "2025-12-02T20:00:03.000384", "MEAN_MOTION": 15.79202412, "ECCENTRICITY": 0.0001634, "INCLINATION": 42.999, "RA_OF_ASC_NODE": 251.7088, "ARG_OF_PERICENTER": 269.4157, "MEAN_ANOMALY": 130.9973, "EPHEMERIS_TYPE": 0, "CLASSIFICATION_TYPE": "U", "NORAD_CAT_ID": 66605, "ELEMENT_SET_NO": 999, "REV_AT_EPOCH": 280, "BSTAR": -0.010798, "MEAN_MOTION_DOT": -0.01760326, "MEAN_MOTION_DDOT": 0}, "tle": {"line1": "1 66605U 25270T   25336.83336806 -.01760326  00000+0 -10798-1 0  9997", "line2": "2 66605  42.9990 251.7088 0001634 269.4157 130.9973 15.79202412  2802"}}, "geometry": {"type": "Point", "coordinates": [-122.41000327450593, -10.844341606868946]}}, {"type": "Feature", "properties": {"norad_id": 66606, "name": "STARLINK-36063", "group": "last-30-days", "lat": -8.152776589433302, "lon": -119.40066760334807, "alt_km": 337.66004710455036, "timestamp": "2025-12-03T04:52:28.421833+00:00", "meta": {"OBJECT_NAME": "STARLINK-36063", "OBJECT_ID": "2025-270U", "EPOCH": "2025-12-02T20:00:03.000384", "MEAN_MOTION": 15.7917738, "ECCENTRICITY": 0.0001802, "INCLINATION": 42.9989, "RA_OF_ASC_NODE": 251.6985, "ARG_OF_PERICENTER": 261.9275, "MEAN_ANOMALY": 142.5506, "EPHEMERIS_TYPE": 0, "CLASSIFICATION_TYPE": "U", "NORAD_CAT_ID": 66606, "ELEMENT_SET_NO": 999, "REV_AT_EPOCH": 280, "BSTAR": -0.011035, "MEAN_MOTION_DOT": -0.01792489, "MEAN_MOTION_DDOT": 0}, "tle": {"line1": "1 66606U 25270U   25336.83336806 -.01792489  00000+0 -11035-1 0  9998", "line2": "2 66606  42.9989 251.6985 0001802 261.9275 142.5506 15.79177380  2807"}}, "geometry": {"type": "Point", "coordinates": [-119.40066760334807, -8.152776589433302]}}, {"type": "Feature", "properties": {"norad_id": 66607, "name": "STARLINK-35993", "group": "last-30-days", "lat": -9.453491127966489, "lon": -120.84522212524709, "alt_km": 337.80068704892983, "timestamp": "2025-12-03T04:52:28.421843+00:00", "meta": {"OBJECT_NAME": "STARLINK-35993", "OBJECT_ID": "2025-270V", "EPOCH": "2025-12-02T20:00:03.000384", "MEAN_MOTION": 15.79177224, "ECCENTRICITY": 0.0001496, "INCLINATION": 42.9992, "RA_OF_ASC_NODE": 251.7035, "ARG_OF_PERICENTER": 261.5245, "MEAN_ANOMALY": 141.0216, "EPHEMERIS_TYPE": 0, "CLASSIFICATION_TYPE": "U", "NORAD_CAT_ID": 66607, "ELEMENT_SET_NO": 999, "REV_AT_EPOCH": 271, "BSTAR": -0.011029, "MEAN_MOTION_DOT": -0.01791343, "MEAN_MOTION_DDOT": 0}, "tle": {"line1": "1 66607U 25270V   25336.83336806 -.01791343  00000+0 -11029-1 0  9990", "line2": "2 66607  42.9992 251.7035 0001496 261.5245 141.0216 15.79177224  2710"}}, "geometry": {"type": "Point", "coordinates": [-120.84522212524709, -9.453491127966489]}}, {"type": "Feature", "properties": {"norad_id": 66608, "name": "STARLINK-36036", "group": "last-30-days", "lat": -6.850145847701717, "lon": -117.96852361284427, "alt_km": 337.5780772850503, "timestamp": "2025-12-03T04:52:28.421853+00:00", "meta": {"OBJECT_NAME": "STARLINK-36036", "OBJECT_ID": "2025-270W", "EPOCH": "2025-12-02T20:00:03.000384", "MEAN_MOTION": 15.79179617, "ECCENTRICITY": 0.0001583, "INCLINATION": 42.9989, "RA_OF_ASC_NODE": 251.6939, "ARG_OF_PERICENTER": 262.0077, "MEAN_ANOMALY": 144.4034, "EPHEMERIS_TYPE": 0, "CLASSIFICATION_TYPE": "U", "NORAD_CAT_ID": 66608, "ELEMENT_SET_NO": 999, "REV_AT_EPOCH": 265, "BSTAR": -0.011067, "MEAN_MOTION_DOT": -0.01797036, "MEAN_MOTION_DDOT": 0}, "tle": {"line1": "1 66608U 25270W   25336.83336806 -.01797036  00000+0 -11067-1 0  9998", "line2": "2 66608  42.9989 251.6939 0001583 262.0077 144.4034 15.79179617  2651"}}, "geometry": {"type": "Point", "coordinates": [-117.96852361284427, -6.850145847701717]}}, {"type": "Feature", "properties": {"norad_id": 66609, "name": "STARLINK-36034", "group": "last-30-days", "lat": -5.54942780197213, "lon": -116.55113506062935, "alt_km": 337.33336118150237, "timestamp": "2025-12-03T04:52:28.421863+00:00", "meta": {"OBJECT_NAME": "STARLINK-36034", "OBJECT_ID": "2025-270X", "EPOCH": "2025-12-02T20:00:03.000384", "MEAN_MOTION": 15.79198042, "ECCENTRICITY": 0.0001535, "INCLINATION": 42.999, "RA_OF_ASC_NODE": 251.6891, "ARG_OF_PERICENTER": 267.1047, "MEAN_ANOMALY": 141.2139, "EPHEMERIS_TYPE": 0, "CLASSIFICATION_TYPE": "U", "NORAD_CAT_ID": 66609, "ELEMENT_SET_NO": 999, "REV_AT_EPOCH": 265, "BSTAR": -0.011173, "MEAN_MOTION_DOT": -0.01813468, "MEAN_MOTION_DDOT": 0}, "tle": {"line1": "1 66609U 25270X   25336.83336806 -.01813468  00000+0 -11173-1 0  9995", "line2": "2 66609  42.9990 251.6891 0001535 267.1047 141.2139 15.79198042  2655"}}, "geometry": {"type": "Point", "coordinates": [-116.55113506062935, -5.54942780197213]}}, {"type": "Feature", "properties": {"norad_id": 66610, "name": "STARLINK-35680", "group": "last-30-days", "lat": -4.211478824762044, "lon": -115.10380830860035, "alt_km": 337.4286049269067, "timestamp": "2025-12-03T04:52:28.421875+00:00", "meta": {"OBJECT_NAME": "STARLINK-35680", "OBJECT_ID": "2025-270Y", "EPOCH": "2025-12-02T20:00:03.000384", "MEAN_MOTION": 15.79173963, "ECCENTRICITY": 0.0001601, "INCLINATION": 42.999, "RA_OF_ASC_NODE": 251.6838, "ARG_OF_PERICENTER": 260.1048, "MEAN_ANOMALY": 150.2091, "EPHEMERIS_TYPE": 0, "CLASSIFICATION_TYPE": "U", "NORAD_CAT_ID": 66610, "ELEMENT_SET_NO": 999, "REV_AT_EPOCH": 291, "BSTAR": -0.011103, "MEAN_MOTION_DOT": -0.01801814, "MEAN_MOTION_DDOT": 0}, "tle": {"line1": "1 66610U 25270Y   25336.83336806 -.01801814  00000+0 -11103-1 0  9992", "line2": "2 66610  42.9990 251.6838 0001601 260.1048 150.2091 15.79173963  2917"}}, "geometry": {"type": "Point", "coordinates": [-115.10380830860035, -4.211478824762044]}}, {"type": "Feature", "properties": {"norad_id": 66611, "name": "STARLINK-35583", "group": "last-30-days", "lat": -2.896008707517821, "lon": -113.6883625884073, "alt_km": 337.112608215798, "timestamp": "2025-12-03T04:52:28.421885+00:00", "meta": {"OBJECT_NAME": "STARLINK-35583", "OBJECT_ID": "2025-270Z", "EPOCH": "2025-12-02T20:00:03.000384", "MEAN_MOTION": 15.79185418, "ECCENTRICITY": 0.000143, "INCLINATION": 42.999, "RA_OF_ASC_NODE": 251.6788, "ARG_OF_PERICENTER": 268.7722, "MEAN_ANOMALY": 143.473, "EPHEMERIS_TYPE": 0, "CLASSIFICATION_TYPE": "U", "NORAD_CAT_ID": 66611, "ELEMENT_SET_NO": 999, "REV_AT_EPOCH": 291, "BSTAR": -0.011219, "MEAN_MOTION_DOT": -0.01818973, "MEAN_MOTION_DDOT": 0}, "tle": {"line1": "1 66611U 25270Z   25336.83336806 -.01818973  00000+0 -11219-1 0  9995", "line2": "2 66611  42.9990 251.6788 0001430 268.7722 143.4730 15.79185418  2917"}}, "geometry": {"type": "Point", "coordinates": [-113.6883625884073, -2.896008707517821]}}, {"type": "Feature", "properties": {"norad_id": 66612, "name": "STARLINK-36039", "group": "last-30-days", "lat": -1.4936885716501076, "lon": -112.18505321080845, "alt_km": 337.2193537930443, "timestamp": "2025-12-03T04:52:28.421897+00:00", "meta": {"OBJECT_NAME": "STARLINK-36039", "OBJECT_ID": "2025-270AA", "EPOCH": "2025-12-02T20:00:03.000384", "MEAN_MOTION": 15.79141975, "ECCENTRICITY": 0.0001521, "INCLINATION": 42.9989, "RA_OF_ASC_NODE": 251.6734, "ARG_OF_PERICENTER": 264.3885, "MEAN_ANOMALY": 149.9754, "EPHEMERIS_TYPE": 0, "CLASSIFICATION_TYPE": "U", "NORAD_CAT_ID": 66612, "ELEMENT_SET_NO": 999, "REV_AT_EPOCH": 280, "BSTAR": -0.011276, "MEAN_MOTION_DOT": -0.01823925, "MEAN_MOTION_DDOT": 0}, "tle": {"line1": "1 66612U 25270AA  25336.83336806 -.01823925  00000+0 -11276-1 0  9992", "line2": "2 66612  42.9989 251.6734 0001521 264.3885 149.9754 15.79141975  2805"}}, "geometry": {"type": "Point", "coordinates": [-112.18505321080845, -1.4936885716501076]}}]}